OBJECT_NAME,OBJECT_ID,EPOCH,MEAN_MOTION,ECCENTRICITY,INCLINATION,RA_OF_ASC_NODE,ARG_OF_PERICENTER,MEAN_ANOMALY,EPHEMERIS_TYPE,CLASSIFICATION_TYPE,NORAD_CAT_ID,ELEMENT_SET_NO,REV_AT_EPOCH,BSTAR,MEAN_MOTION_DOT,MEAN_MOTION_DDOT
STARLINK-1805,2020-073AM,2024-03-31T16:15:34.250400,15.06423458,.0001397,53.0530,195.0084,69.2273,290.8865,0,U,46705,999,19068,.1618E-2,.23916E-3,0
STARLINK-1807,2020-073AN,2024-03-31T12:26:40.893504,15.06431842,.0001046,53.0533,180.7226,94.6012,265.5097,0,U,46706,999,19039,.14855E-2,.21933E-3,0
STARLINK-1808,2020-073AP,2024-03-31T12:13:24.374496,15.06405964,.0001887,53.0527,160.7636,106.4959,253.6238,0,U,46707,999,19067,.98244E-3,.14384E-3,0
STARLINK-1810,2020-073AR,2024-03-31T14:02:53.828736,15.06419639,.0001326,53.0544,195.5446,107.9038,252.2096,0,U,46709,999,19066,.64086E-3,.9282E-4,0
STARLINK-1813,2020-073AT,2024-03-31T12:16:03.221760,15.06415716,.0001569,53.0529,180.7538,101.4323,258.6843,0,U,46711,999,19039,.31396E-3,.44E-4,0
STARLINK-1814,2020-073AU,2024-03-31T13:19:46.833024,15.06412711,.0001576,53.0542,180.6853,108.2503,251.8658,0,U,46712,999,19039,.91458E-3,.13372E-3,0
STARLINK-1815,2020-073AV,2024-03-31T13:18:23.684256,15.06419750,.0001432,53.0555,180.5509,118.9049,241.2084,0,U,46713,999,19039,.11924E-2,.17533E-3,0
STARLINK-1816,2020-073AW,2024-03-31T13:03:50.373792,15.06418758,.0001143,53.0526,180.6072,107.3515,252.7599,0,U,46714,999,19039,.92148E-3,.13477E-3,0
STARLINK-1817,2020-073AX,2024-03-31T12:58:31.428192,15.06402999,.0001613,53.0533,180.6225,105.1236,254.9931,0,U,46715,999,19039,.53694E-3,.7726E-4,0
STARLINK-1818,2020-073AY,2024-03-31T13:20:25.489248,15.06423962,.0001779,53.0533,195.5554,77.7525,282.3663,0,U,46716,999,19018,.16255E-2,.24029E-3,0
STARLINK-1820,2020-073AZ,2024-03-31T13:25:03.879552,15.06415285,.0001375,53.0530,180.5413,108.6589,251.4550,0,U,46717,999,19087,.1376E-2,.20282E-3,0
STARLINK-1821,2020-073BA,2024-03-31T14:29:24.180576,15.06424995,.0001521,53.0559,195.3772,99.8148,260.3013,0,U,46718,999,19019,-.11266E-4,-.449E-5,0
STARLINK-1822,2020-073BB,2024-03-31T13:59:33.414432,15.06396811,.0001418,53.0527,160.4341,83.1227,276.9923,0,U,46719,999,19068,-.76204E-5,-.395E-5,0
STARLINK-1825,2020-073BE,2024-03-31T22:00:00.999936,15.76534666,.0001477,53.0495,175.7763,75.6080,282.1616,0,U,46722,999,19097,.13494E-2,.224208E-2,0
STARLINK-1826,2020-073BF,2024-03-31T14:02:53.077056,15.06414983,.0001579,53.0528,155.4191,74.0491,286.0672,0,U,46723,999,19075,.55132E-3,.7943E-4,0
STARLINK-1828,2020-073BH,2024-03-31T17:19:15.419136,15.06415051,.0001245,53.0534,194.8074,112.3982,247.7139,0,U,46725,999,19069,.10395E-2,.15242E-3,0
STARLINK-1829,2020-073BJ,2024-03-31T13:07:46.760736,15.06417345,.0001441,53.0530,180.5848,101.8423,258.2728,0,U,46726,999,19039,.10533E-2,.15449E-3,0
STARLINK-1830,2020-073BK,2024-03-31T10:30:34.613568,15.06419457,.0001612,53.0517,156.0827,96.5202,263.5971,0,U,46727,999,19073,.15955E-2,.23576E-3,0
STARLINK-1848,2020-074B,2024-03-31T19:06:44.775648,15.06416372,.0001203,53.0538,264.4738,93.1824,266.9303,0,U,46740,999,18992,.2149E-3,.2922E-4,0
STARLINK-1865,2020-074C,2024-03-31T14:44:40.608960,15.06408160,.0001771,53.0522,260.2910,92.4805,267.6386,0,U,46741,999,18995,.57333E-4,.573E-5,0
STARLINK-1892,2020-074E,2024-03-31T17:45:08.415072,15.06418565,.0001336,53.0525,259.7269,87.3177,272.7964,0,U,46743,999,18999,.64782E-4,.684E-5,0
STARLINK-1894,2020-074F,2024-03-31T10:51:11.555712,15.06396060,.0001456,53.0533,261.2893,99.5175,260.5979,0,U,46744,999,18992,.55563E-4,.546E-5,0
STARLINK-1905,2020-074H,2024-03-31T16:57:22.144320,15.06404419,.0001409,53.0551,259.8764,102.2431,257.8716,0,U,46746,999,18998,.44444E-3,.6345E-4,0
STARLINK-1908,2020-074J,2024-03-31T11:44:13.180416,15.06400039,.0001475,53.0525,260.8601,93.1829,266.9329,0,U,46747,999,18993,.29971E-3,.4185E-4,0
STARLINK-1910,2020-074K,2024-03-31T18:16:59.656512,15.06404469,.0001573,53.0531,259.6309,92.4079,267.7090,0,U,46748,999,18999,.25001E-3,.3445E-4,0
STARLINK-1911,2020-074L,2024-03-31T18:27:35.335872,15.06400478,.0001106,53.0538,259.5932,82.9014,277.2100,0,U,46749,999,18999,.39763E-4,.311E-5,0
STARLINK-1920,2020-074N,2024-03-31T12:00:08.483616,15.06427101,.0001063,53.0550,260.8026,92.6207,267.4904,0,U,46751,999,18993,-.38642E-3,-.6036E-4,0
STARLINK-1921,2020-074P,2024-03-31T18:38:12.982560,15.06410379,.0001253,53.0536,259.5608,89.0732,271.0400,0,U,46752,999,18999,.55472E-3,.7993E-4,0
STARLINK-1922,2020-074Q,2024-03-31T14:39:22.389984,15.06417204,.0001243,53.0519,260.3086,93.6471,266.4660,0,U,46753,999,18995,.18382E-3,.2459E-4,0
STARLINK-1923,2020-074R,2024-03-31T14:49:59.133792,15.06408688,.0001568,53.0553,260.2728,99.0307,261.0859,0,U,46754,999,18995,.11053E-3,.1366E-4,0
STARLINK-1924,2020-074S,2024-03-31T14:57:17.374464,15.06408679,.000131,53.0533,265.2510,84.7278,275.3860,0,U,46755,999,18988,.55947E-3,.8063E-4,0
STARLINK-1925,2020-074T,2024-03-31T10:53:11.967936,15.06404381,.0001445,53.0492,266.4069,86.9608,273.1546,0,U,46756,999,18985,.16085E-3,.2115E-4,0
STARLINK-1926,2020-074U,2024-03-31T14:00:01.000224,15.14128072,.0001179,53.0542,265.4072,73.5292,325.2321,0,U,46757,999,586,.2159E-1,.421956E-2,0
STARLINK-1928,2020-074V,2024-03-31T17:41:50.507232,15.06387155,.0001183,53.0566,264.7391,96.1500,263.9623,0,U,46758,999,18992,-.16093E-3,-.2677E-4,0
STARLINK-1833,2020-074W,2024-03-31T19:10:43.789152,15.06404821,.0001213,53.0547,274.4606,97.4896,262.6231,0,U,46759,999,18950,-.10344E-4,-.435E-5,0
STARLINK-1896,2020-074X,2024-03-31T11:28:59.110752,15.06410183,.0000861,53.0462,275.8948,87.3895,272.7193,0,U,46760,999,18972,.10151E-2,.14875E-3,0
STARLINK-1903,2020-074AB,2024-03-31T19:16:02.444448,15.06403493,.0001236,53.0527,274.4407,97.9967,262.1162,0,U,46764,999,18979,.14192E-3,.1833E-4,0
STARLINK-1906,2020-074AC,2024-03-31T12:37:58.462176,15.06413463,.00014,53.0541,275.6862,96.2543,263.8605,0,U,46765,999,18972,.12726E-2,.18731E-3,0
STARLINK-1916,2020-074AD,2024-03-31T18:49:29.413344,15.06411072,.0000882,53.0509,274.5247,93.0001,267.1089,0,U,46766,999,18950,.33142E-3,.466E-4,0
STARLINK-1917,2020-074AE,2024-03-31T19:31:56.144928,15.06395061,.0001266,53.0529,274.3947,95.0149,265.0985,0,U,46767,999,18978,-.23665E-3,-.3804E-4,0
STARLINK-1918,2020-074AF,2024-03-31T19:37:14.793312,15.06406363,.0001252,53.0535,274.3752,95.2049,264.9083,0,U,46768,999,18979,.10803E-3,.1328E-4,0
STARLINK-1932,2020-074AH,2024-03-31T19:47:56.886144,15.06432403,.000156,53.0541,274.8954,98.0904,262.0262,0,U,46770,999,18978,.34991E-3,.4939E-4,0
STARLINK-1936,2020-074AK,2024-03-31T11:48:50.582304,15.06395698,.0001345,53.0530,275.8264,83.1928,276.9214,0,U,46772,999,18972,.15773E-3,.2068E-4,0
STARLINK-1798,2020-074AS,2024-03-31T14:08:51.729504,15.06395311,.0001625,53.0524,250.4013,88.6257,271.4918,0,U,46779,999,19008,.84452E-3,.12318E-3,0
STARLINK-1832,2020-074AT,2024-03-31T20:15:04.751136,15.06409118,.0001351,53.0529,249.2577,92.0063,268.1081,0,U,46780,999,18985,.38134E-3,.5404E-4,0
STARLINK-1834,2020-074AU,2024-03-31T11:07:03.837504,15.06405416,.0001314,53.0541,260.9682,82.5865,277.5274,0,U,46781,999,18993,.42514E-3,.6058E-4,0
STARLINK-1835,2020-074AV,2024-03-31T10:25:55.315200,15.06417302,.0001339,53.0533,251.0969,90.2034,269.9109,0,U,46782,999,18978,-.70752E-4,-.1336E-4,0
STARLINK-1851,2020-074AW,2024-03-31T19:41:31.839360,15.70142755,.0000933,53.0531,238.4439,61.2071,298.9039,0,U,46783,999,19000,.12188E-2,.152551E-2,0
STARLINK-1882,2020-074AX,2024-03-31T14:35:25.232352,15.06399586,.0001344,53.0539,250.5498,91.0560,269.0582,0,U,46784,999,19008,-.15019E-3,-.2518E-4,0
STARLINK-1883,2020-074AY,2024-03-31T10:31:14.462976,15.06401256,.0001612,53.0523,251.0788,83.1233,276.9939,0,U,46785,999,19006,.51765E-3,.7437E-4,0
STARLINK-1893,2020-074AZ,2024-03-31T13:13:06.437280,15.06413269,.0001246,53.0537,230.5768,94.3932,265.7199,0,U,46786,999,19036,.98581E-4,.1188E-4,0
STARLINK-1899,2020-074BA,2024-03-31T22:00:00.999936,15.29611612,.0001072,53.0467,226.0769,56.5858,199.1498,0,U,46787,999,19013,.74129E-2,.221808E-2,0
STARLINK-1929,2020-074BB,2024-03-31T16:02:56.957856,15.06414613,.000098,53.0531,230.0459,92.8650,267.2451,0,U,46788,999,19006,.75706E-4,.847E-5,0
STARLINK-1930,2020-074BC,2024-03-31T03:51:51.550848,15.06403474,.0001044,53.0550,262.4894,89.2257,270.8852,0,U,46789,999,18988,.45621E-4,.398E-5,0
STARLINK-1931,2020-074BD,2024-03-31T10:56:26.500128,15.06409256,.0001386,53.0544,261.0012,95.5187,264.5960,0,U,46790,999,18992,.20746E-3,.2811E-4,0
STARLINK-1933,2020-074BE,2024-03-31T11:17:39.414048,15.06435338,.0001708,53.0524,260.9357,103.2715,256.8464,0,U,46791,999,18993,-.3543E-3,-.556E-4,0
STARLINK-1934,2020-074BF,2024-03-31T19:53:49.499232,15.06432693,.0001348,53.0537,249.3269,111.7496,248.3636,0,U,46792,999,18979,-.10256E-2,-.15538E-3,0
STARLINK-1941,2020-074BG,2024-03-31T17:23:54.349440,15.06408327,.0001688,53.0531,259.7938,82.2248,277.8932,0,U,46793,999,18964,.17884E-4,-.15E-6,0
STARLINK-1942,2020-074BH,2024-03-31T17:34:31.972800,15.06409097,.0001608,53.0522,259.7592,87.4772,272.6401,0,U,46794,999,18965,.52582E-3,.7561E-4,0
STARLINK-1944,2020-074BK,2024-03-31T10:36:32.639616,15.06406018,.0001403,53.0536,251.0620,81.2093,278.9055,0,U,46796,999,18974,.13093E-3,.167E-4,0
STARLINK-1948,2020-074BM,2024-03-31T12:57:49.925952,15.06396531,.0001377,53.0517,275.6223,99.5240,260.5905,0,U,46798,999,18973,.36317E-4,.259E-5,0
COSMOS 2547 [GLONASS-K],2020-075A,2024-03-31T19:34:53.350464,2.13103021,.0006519,64.6036,219.4676,236.2536,123.6741,0,U,46805,999,2670,0,.39E-6,0
YAOGAN-30 U,2020-076A,2024-03-31T21:45:30.697920,14.94555099,.000235,34.9944,304.8327,264.2526,95.7912,0,U,46807,999,18701,.37954E-3,.4157E-4,0
YAOGAN-30 V,2020-076B,2024-03-31T21:12:29.362752,14.94519327,.0002024,34.9948,304.6945,215.0970,144.9603,0,U,46808,999,18701,.371E-3,.4059E-4,0
YAOGAN-30 W,2020-076C,2024-03-31T20:39:37.916928,14.94549297,.0007725,34.9962,304.6260,239.3090,120.6854,0,U,46809,999,18700,.361E-3,.3954E-4,0
